{"type": "FeatureCollection", "features": [ {"type": "Feature", "properties": {"norad_id": 36231, "name": "FENGYUN 1C DEB", "group": "fengyun-1c-debris", "lat": 16.842508395095535, "lon": 154.73606042633747, "alt_km": 886.0560566520335, "timestamp": "2025-12-23T11:34:48.450598+00:00", "meta": {"OBJECT_NAME": "FENGYUN 1C DEB", "OBJECT_ID": "1999-025DVG", "EPOCH": "2025-12-23T04:00:14.234688", "MEAN_MOTION": 14.12013076, "ECCENTRICITY": 0.0060117, "INCLINATION": 98.6899, "RA_OF_ASC_NODE": 331.7765, "ARG_OF_PERICENTER": 303.5166, "MEAN_ANOMALY": 56.0271, "EPHEMERIS_TYPE": 0, "CLASSIFICATION_TYPE": "U", "NORAD_CAT_ID": 36231, "ELEMENT_SET_NO": 999, "REV_AT_EPOCH": 85690, "BSTAR": 0.00013411, "MEAN_MOTION_DOT": 2.07e-06, "MEAN_MOTION_DDOT": 0}, "tle": {"line1": "1 36231U 99025DVG 25357.16683142  .00000207  00000+0  13411-3 0  9994", "line2": "2 36231  98.6899 331.7765 0060117 303.5166  56.0271 14.12013076856901"}}, "geometry": {"type": "Point", "coordinates": [154.73606042633747, 16.842508395095535]}}, {"type": "Feature", "properties": {"norad_id": 36232, "name": "FENGYUN 1C DEB", "group": "fengyun-1c-debris", "lat": 70.458191338462, "lon": -44.34723549874086, "alt_km": 820.5080202627105, "timestamp": "2025-12-23T11:34:48.450607+00:00", "meta": {"OBJECT_NAME": "FENGYUN 1C DEB", "OBJECT_ID": "1999-025DVH", "EPOCH": "2025-12-13T16:38:24.949248", "MEAN_MOTION": 14.12503312, "ECCENTRICITY": 0.01190746, "INCLINATION": 98.7046, "RA_OF_ASC_NODE": 331.7114, "ARG_OF_PERICENTER": 25.4348, "MEAN_ANOMALY": 335.262, "EPHEMERIS_TYPE": 0, "CLASSIFICATION_TYPE": "U", "NORAD_CAT_ID": 36232, "ELEMENT_SET_NO": 999, "REV_AT_EPOCH": 61749, "BSTAR": 0.00047398926, "MEAN_MOTION_DOT": 8.94e-06, "MEAN_MOTION_DDOT": 0}, "tle": {"line1": "1 36232U 99025DVH 25347.69334432  .00000894  00000+0  47399-3 0  9991", "line2": "2 36232  98.7046 331.7114 0119074  25.4348 335.2620 14.12503312617490"}}, "geometry": {"type": "Point", "coordinates": [-44.34723549874086, 70.458191338462]}}, {"type": "Feature", "properties": {"norad_id": 36234, "name": "FENGYUN 1C DEB", "group": "fengyun-1c-debris", "lat": 52.78407133619455, "lon": -101.74333096203313, "alt_km": 1214.1669149059035, "timestamp": "2025-12-23T11:34:48.450618+00:00", "meta": {"OBJECT_NAME": "FENGYUN 1C DEB", "OBJECT_ID": "1999-025DVK", "EPOCH": "2025-12-08T10:31:28.850304", "MEAN_MOTION": 13.45655828, "ECCENTRICITY": 0.03174488, "INCLINATION": 99.0031, "RA_OF_ASC_NODE": 52.6849, "ARG_OF_PERICENTER": 39.1104, "MEAN_ANOMALY": 323.2521, "EPHEMERIS_TYPE": 0, "CLASSIFICATION_TYPE": "U", "NORAD_CAT_ID": 36234, "ELEMENT_SET_NO": 999, "REV_AT_EPOCH": 87889, "BSTAR": 0.00050484626, "MEAN_MOTION_DOT": 3.7e-06, "MEAN_MOTION_DDOT": 0}, "tle": {"line1": "1 36234U 99025DVK 25342.43852836  .00000370  00000+0  50485-3 0  9992", "line2": "2 36234  99.0031  52.6849 0317448  39.1104 323.2521 13.45655828878896"}}, "geometry": {"type": "Point", "coordinates": [-101.74333096203313, 52.78407133619455]}}, {"type": "Feature", "properties": {"norad_id": 36236, "name": "FENGYUN 1C DEB", "group": "fengyun-1c-debris", "lat": -29.056834853535186, "lon": -147.74216957239722, "alt_km": 1016.232318822781, "timestamp": "2025-12-23T11:34:48.450627+00:00", "meta": {"OBJECT_NAME": "FENGYUN 1C DEB", "OBJECT_ID": "1999-025DVM", "EPOCH": "2025-12-10T20:13:13.163808", "MEAN_MOTION": 13.81954009, "ECCENTRICITY": 0.0149575, "INCLINATION": 98.85, "RA_OF_ASC_NODE": 25.3566, "ARG_OF_PERICENTER": 3.3066, "MEAN_ANOMALY": 356.9043, "EPHEMERIS_TYPE": 0, "CLASSIFICATION_TYPE": "U", "NORAD_CAT_ID": 36236, "ELEMENT_SET_NO": 999, "REV_AT_EPOCH": 59721, "BSTAR": 0.00040381, "MEAN_MOTION_DOT": 4.31e-06, "MEAN_MOTION_DDOT": 0}, "tle": {"line1": "1 36236U 99025DVM 25344.84251347  .00000431  00000+0  40381-3 0  9993", "line2": "2 36236  98.8500  25.3566 0149575   3.3066 356.9043 13.81954009597212"}}, "geometry": {"type": "Point", "coordinates": [-147.74216957239722, -29.056834853535186]}}, {"type": "Feature", "properties": {"norad_id": 36238, "name": "FENGYUN 1C DEB", "group": "fengyun-1c-debris", "lat": 80.36908115414843, "lon": -94.16809366739467, "alt_km": 857.7476297046233, "timestamp": "2025-12-23T11:34:48.450635+00:00", "meta": {"OBJECT_NAME": "FENGYUN 1C DEB", "OBJECT_ID": "1999-025DVP", "EPOCH": "2025-12-19T15:21:49.148352", "MEAN_MOTION": 14.12392478, "ECCENTRICITY": 0.0020073, "INCLINATION": 98.6476, "RA_OF_ASC_NODE": 325.8662, "ARG_OF_PERICENTER": 261.1573, "MEAN_ANOMALY": 98.7326, "EPHEMERIS_TYPE": 0, "CLASSIFICATION_TYPE": "U", "NORAD_CAT_ID": 36238, "ELEMENT_SET_NO": 999, "REV_AT_EPOCH": 87115, "BSTAR": 6.982e-05, "MEAN_MOTION_DOT": 8.7e-07, "MEAN_MOTION_DDOT": 0}, "tle": {"line1": "1 36238U 99025DVP 25353.64015218  .00000087  00000+0  69820-4 0  9995", "line2": "2 36238  98.6476 325.8662 0020073 261.1573  98.7326 14.12392478871151"}}, "geometry": {"type": "Point", "coordinates": [-94.16809366739467, 80.36908115414843]}}, {"type": "Feature", "properties": {"norad_id": 36244, "name": "FENGYUN 1C DEB", "group": "fengyun-1c-debris", "lat": 63.15833781409518, "lon": -53.61940453934342, "alt_km": 828.5919303838573, "timestamp": "2025-12-23T11:34:48.450644+00:00", "meta": {"OBJECT_NAME": "FENGYUN 1C DEB", "OBJECT_ID": "1999-025DVV", "EPOCH": "2025-12-21T18:35:36.590784", "MEAN_MOTION": 14.25031478, "ECCENTRICITY": 0.00495991, "INCLINATION": 98.9267, "RA_OF_ASC_NODE": 106.5494, "ARG_OF_PERICENTER": 258.3567, "MEAN_ANOMALY": 101.2043, "EPHEMERIS_TYPE": 0, "CLASSIFICATION_TYPE": "U", "NORAD_CAT_ID": 36244, "ELEMENT_SET_NO": 999, "REV_AT_EPOCH": 92107, "BSTAR": 0.0013447202, "MEAN_MOTION_DOT": 3.145e-05, "MEAN_MOTION_DDOT": 0}, "tle": {"line1": "1 36244U 99025DVV 25355.77472906  .00003145  00000+0  13447-2 0  9999", "line2": "2 36244  98.9267 106.5494 0049599 258.3567 101.2043 14.25031478921078"}}, "geometry": {"type": "Point", "coordinates": [-53.61940453934342, 63.15833781409518]}}, {"type": "Feature", "properties": {"norad_id": 36247, "name": "FENGYUN 1C DEB", "group": "fengyun-1c-debris", "lat": 36.930284025221766, "lon": 3.8104284615431228, "alt_km": 667.6847915948802, "timestamp": "2025-12-23T11:34:48.450653+00:00", "meta": {"OBJECT_NAME": "FENGYUN 1C DEB", "OBJECT_ID": "1999-025DVY", "EPOCH": "2025-12-22T18:39:43.623072", "MEAN_MOTION": 14.33613758, "ECCENTRICITY": 0.01866308, "INCLINATION": 98.2674, "RA_OF_ASC_NODE": 9.4107, "ARG_OF_PERICENTER": 3.8688, "MEAN_ANOMALY": 356.389, "EPHEMERIS_TYPE": 0, "CLASSIFICATION_TYPE": "U", "NORAD_CAT_ID": 36247, "ELEMENT_SET_NO": 999, "REV_AT_EPOCH": 70406, "BSTAR": 0.00041952203, "MEAN_MOTION_DOT": 1.365e-05, "MEAN_MOTION_DDOT": 0}, "tle": {"line1": "1 36247U 99025DVY 25356.77758823  .00001365  00000+0  41952-3 0  9993", "line2": "2 36247  98.2674   9.4107 0186630   3.8688 356.3890 14.33613758704060"}}, "geometry": {"type": "Point", "coordinates": [3.8104284615431228, 36.930284025221766]}}, {"type": "Feature", "properties": {"norad_id": 36254, "name": "FENGYUN 1C DEB", "group": "fengyun-1c-debris", "lat": 42.66077920316054, "lon": 143.2781065014719, "alt_km": 520.1401571632623, "timestamp": "2025-12-23T11:34:48.450663+00:00", "meta": {"OBJECT_NAME": "FENGYUN 1C DEB", "OBJECT_ID": "1999-025DWF", "EPOCH": "2025-12-05T14:18:33.769152", "MEAN_MOTION": 15.16034114, "ECCENTRICITY": 0.00460205, "INCLINATION": 99.5281, "RA_OF_ASC_NODE": 291.8918, "ARG_OF_PERICENTER": 66.714, "MEAN_ANOMALY": 293.892, "EPHEMERIS_TYPE": 0, "CLASSIFICATION_TYPE": "U", "NORAD_CAT_ID": 36254, "ELEMENT_SET_NO": 999, "REV_AT_EPOCH": 60668, "BSTAR": 0.005730812, "MEAN_MOTION_DOT": 0.00114745, "MEAN_MOTION_DDOT": 0}, "tle": {"line1": "1 36254U 99025DWF 25339.59622418  .00114745  00000+0  57308-2 0  9990", "line2": "2 36254  99.5281 291.8918 0046020  66.7140 293.8920 15.16034114606685"}}, "geometry": {"type": "Point", "coordinates": [143.2781065014719, 42.66077920316054]}}, {"type": "Feature", "properties": {"norad_id": 36255, "name": "FENGYUN 1C DEB", "group": "fengyun-1c-debris", "lat": -69.69620813318893, "lon": -54.13943416522967, "alt_km": 818.7898915039714, "timestamp": "2025-12-23T11:34:48.450680+00:00", "meta": {"OBJECT_NAME": "FENGYUN 1C DEB", "OBJECT_ID": "1999-025DWG", "EPOCH": "2025-12-19T13:28:01.680384", "MEAN_MOTION": 14.36594643, "ECCENTRICITY": 0.0064178, "INCLINATION": 99.4355, "RA_OF_ASC_NODE": 274.859, "ARG_OF_PERICENTER": 143.5444, "MEAN_ANOMALY": 35.1872, "EPHEMERIS_TYPE": 0, "CLASSIFICATION_TYPE": "U", "NORAD_CAT_ID": 36255, "ELEMENT_SET_NO": 999, "REV_AT_EPOCH": 64108, "BSTAR": 0.00048244, "MEAN_MOTION_DOT": 1.401e-05, "MEAN_MOTION_DDOT": 0}, "tle": {"line1": "1 36255U 99025DWG 25353.56113056  .00001401  00000+0  48244-3 0  9991", "line2": "2 36255  99.4355 274.8590 0064178 143.5444  35.1872 14.36594643641084"}}, "geometry": {"type": "Point", "coordinates": [-54.13943416522967, -69.69620813318893]}}, {"type": "Feature", "properties": {"norad_id": 36258, "name": "FENGYUN 1C DEB", "group": "fengyun-1c-debris", "lat": 80.56202554623319, "lon": -46.021498531280386, "alt_km": 516.5318869379162, "timestamp": "2025-12-23T11:34:48.450691+00:00", "meta": {"OBJECT_NAME": "FENGYUN 1C DEB", "OBJECT_ID": "1999-025DWK", "EPOCH": "2025-12-22T07:30:50.932800", "MEAN_MOTION": 14.74895228, "ECCENTRICITY": 0.01735585, "INCLINATION": 99.0856, "RA_OF_ASC_NODE": 26.9608, "ARG_OF_PERICENTER": 96.0354, "MEAN_ANOMALY": 266.0659, "EPHEMERIS_TYPE": 0, "CLASSIFICATION_TYPE": "U", "NORAD_CAT_ID": 36258, "ELEMENT_SET_NO": 999, "REV_AT_EPOCH": 90963, "BSTAR": 0.00030074109, "MEAN_MOTION_DOT": 2.502e-05, "MEAN_MOTION_DDOT": 0}, "tle": {"line1": "1 36258U 99025DWK 25356.31308950  .00002502  00000+0  30074-3 0  9994", "line2": "2 36258  99.0856  26.9608 0173558  96.0354 266.0659 14.74895228909631"}}, "geometry": {"type": "Point", "coordinates": [-46.021498531280386, 80.56202554623319]}}]}